STARLINK-35844          
1 66880U 25283C   25356.91670139 -.01881816  00000+0 -16375-1 0  9992
2 66880  53.1589  22.9124 0001344  94.2440 130.1354 15.71776537  4062
STARLINK-35860          
1 66881U 25283D   25356.91670139 -.01881341  00000+0 -16372-1 0  9993
2 66881  53.1588  22.9040 0001079  87.7793 140.4331 15.71776711  4065
STARLINK-35912          
1 66882U 25283E   25356.91670139 -.01882950  00000+0 -16385-1 0  9995
2 66882  53.1587  22.9007 0001344  89.1136 141.0149 15.71777660  4068
STARLINK-35947          
1 66883U 25283F   25356.91670139 -.01880932  00000+0 -16369-1 0  9996
2 66883  53.1589  22.8971 0001215  90.5052 141.5447 15.71774198  4115
STARLINK-36057          
1 66884U 25283G   25356.91670139 -.01873937  00000+0 -16299-1 0  9996
2 66884  53.1589  22.8884 0001301  98.4137 137.4676 15.71771663  4062
STARLINK-35954          
1 66885U 25283H   25356.91670139 -.01883659  00000+0 -16394-1 0  9995
2 66885  53.1589  22.8926 0001252  91.8520 142.1135 15.71776394  4067
STARLINK-35900          
1 66886U 25283J   25356.91670139 -.02055529  00000+0 -17640-1 0  9999
2 66886  53.1589  22.8839 0001307 120.6758 117.1362 15.71845118  4061
STARLINK-35925          
1 66887U 25283K   25356.91670139 -.01883477  00000+0 -16393-1 0  9994
2 66887  53.1589  22.8801 0001150  86.6689 153.0452 15.71777396  4062
STARLINK-35919          
1 66888U 25283L   25356.91670139 -.01878820  00000+0 -16346-1 0  9999
2 66888  53.1589  22.8758 0001269  88.9119 152.7176 15.71775408  4069
STARLINK-35852          
1 66889U 25283M   25356.91670139 -.01878277  00000+0 -16342-1 0  9992
2 66889  53.1589  22.8715 0001311  91.4167 152.1325 15.71773459  4067
STARLINK-35885          
1 66890U 25283N   25356.91670139 -.01881316  00000+0 -16370-1 0  9993
2 66890  53.1584  22.8679 0001252 104.0654 141.3992 15.71776833  4068
STARLINK-35855          
1 66891U 25283P   25356.91670139 -.01878336  00000+0 -16343-1 0  9992
2 66891  53.1587  22.8636 0001300 102.5691 144.8161 15.71772652  4064
