CCSDS_OMM_VERS = 2.0
CREATION_DATE  = 
ORIGINATOR     = 

OBJECT_NAME    = STARLINK-35844
OBJECT_ID      = 2025-283C
CENTER_NAME    = EARTH
REF_FRAME      = TEME
TIME_SYSTEM    = UTC
MEAN_ELEMENT_THEORY = SGP/SGP4

EPOCH          = 2025-12-22T22:00:03.000096
MEAN_MOTION    = 15.71776537
ECCENTRICITY   = .00013449
INCLINATION    = 53.1589
RA_OF_ASC_NODE = 22.9124
ARG_OF_PERICENTER = 94.2440
MEAN_ANOMALY   = 130.1354

EPHEMERIS_TYPE = 0
CLASSIFICATION_TYPE = U
NORAD_CAT_ID   = 66880
ELEMENT_SET_NO = 999
REV_AT_EPOCH   = 406
BSTAR          = -.1637475E-1
MEAN_MOTION_DOT = -.1881816E-1
MEAN_MOTION_DDOT = 0

CCSDS_OMM_VERS = 2.0
CREATION_DATE  = 
ORIGINATOR     = 

OBJECT_NAME    = STARLINK-35860
OBJECT_ID      = 2025-283D
CENTER_NAME    = EARTH
REF_FRAME      = TEME
TIME_SYSTEM    = UTC
MEAN_ELEMENT_THEORY = SGP/SGP4

EPOCH          = 2025-12-22T22:00:03.000096
MEAN_MOTION    = 15.71776711
ECCENTRICITY   = .00010792
INCLINATION    = 53.1588
RA_OF_ASC_NODE = 22.9040
ARG_OF_PERICENTER = 87.7793
MEAN_ANOMALY   = 140.4331

EPHEMERIS_TYPE = 0
CLASSIFICATION_TYPE = U
NORAD_CAT_ID   = 66881
ELEMENT_SET_NO = 999
REV_AT_EPOCH   = 406
BSTAR          = -.16372102E-1
MEAN_MOTION_DOT = -.1881341E-1
MEAN_MOTION_DDOT = 0

CCSDS_OMM_VERS = 2.0
CREATION_DATE  = 
ORIGINATOR     = 

OBJECT_NAME    = STARLINK-35912
OBJECT_ID      = 2025-283E
CENTER_NAME    = EARTH
REF_FRAME      = TEME
TIME_SYSTEM    = UTC
MEAN_ELEMENT_THEORY = SGP/SGP4

EPOCH          = 2025-12-22T22:00:03.000096
MEAN_MOTION    = 15.71777660
ECCENTRICITY   = .00013449
INCLINATION    = 53.1587
RA_OF_ASC_NODE = 22.9007
ARG_OF_PERICENTER = 89.1136
MEAN_ANOMALY   = 141.0149

EPHEMERIS_TYPE = 0
CLASSIFICATION_TYPE = U
NORAD_CAT_ID   = 66882
ELEMENT_SET_NO = 999
REV_AT_EPOCH   = 406
BSTAR          = -.16385355E-1
MEAN_MOTION_DOT = -.188295E-1
MEAN_MOTION_DDOT = 0

CCSDS_OMM_VERS = 2.0
CREATION_DATE  = 
ORIGINATOR     = 

OBJECT_NAME    = STARLINK-35947
OBJECT_ID      = 2025-283F
CENTER_NAME    = EARTH
REF_FRAME      = TEME
TIME_SYSTEM    = UTC
MEAN_ELEMENT_THEORY = SGP/SGP4

EPOCH          = 2025-12-22T22:00:03.000096
MEAN_MOTION    = 15.71774198
ECCENTRICITY   = .00012157
INCLINATION    = 53.1589
RA_OF_ASC_NODE = 22.8971
ARG_OF_PERICENTER = 90.5052
MEAN_ANOMALY   = 141.5447

EPHEMERIS_TYPE = 0
CLASSIFICATION_TYPE = U
NORAD_CAT_ID   = 66883
ELEMENT_SET_NO = 999
REV_AT_EPOCH   = 411
BSTAR          = -.16368601E-1
MEAN_MOTION_DOT = -.1880932E-1
MEAN_MOTION_DDOT = 0

CCSDS_OMM_VERS = 2.0
CREATION_DATE  = 
ORIGINATOR     = 

OBJECT_NAME    = STARLINK-36057
OBJECT_ID      = 2025-283G
CENTER_NAME    = EARTH
REF_FRAME      = TEME
TIME_SYSTEM    = UTC
MEAN_ELEMENT_THEORY = SGP/SGP4

EPOCH          = 2025-12-22T22:00:03.000096
MEAN_MOTION    = 15.71771663
ECCENTRICITY   = .00013014
INCLINATION    = 53.1589
RA_OF_ASC_NODE = 22.8884
ARG_OF_PERICENTER = 98.4137
MEAN_ANOMALY   = 137.4676

EPHEMERIS_TYPE = 0
CLASSIFICATION_TYPE = U
NORAD_CAT_ID   = 66884
ELEMENT_SET_NO = 999
REV_AT_EPOCH   = 406
BSTAR          = -.16299349E-1
MEAN_MOTION_DOT = -.1873937E-1
MEAN_MOTION_DDOT = 0

CCSDS_OMM_VERS = 2.0
CREATION_DATE  = 
ORIGINATOR     = 

OBJECT_NAME    = STARLINK-35954
OBJECT_ID      = 2025-283H
CENTER_NAME    = EARTH
REF_FRAME      = TEME
TIME_SYSTEM    = UTC
MEAN_ELEMENT_THEORY = SGP/SGP4

EPOCH          = 2025-12-22T22:00:03.000096
MEAN_MOTION    = 15.71776394
ECCENTRICITY   = .00012525
INCLINATION    = 53.1589
RA_OF_ASC_NODE = 22.8926
ARG_OF_PERICENTER = 91.8520
MEAN_ANOMALY   = 142.1135

EPHEMERIS_TYPE = 0
CLASSIFICATION_TYPE = U
NORAD_CAT_ID   = 66885
ELEMENT_SET_NO = 999
REV_AT_EPOCH   = 406
BSTAR          = -.16394177E-1
MEAN_MOTION_DOT = -.1883659E-1
MEAN_MOTION_DDOT = 0

CCSDS_OMM_VERS = 2.0
CREATION_DATE  = 
ORIGINATOR     = 

OBJECT_NAME    = STARLINK-35900
OBJECT_ID      = 2025-283J
CENTER_NAME    = EARTH
REF_FRAME      = TEME
TIME_SYSTEM    = UTC
MEAN_ELEMENT_THEORY = SGP/SGP4

EPOCH          = 2025-12-22T22:00:03.000096
MEAN_MOTION    = 15.71845118
ECCENTRICITY   = .00013078
INCLINATION    = 53.1589
RA_OF_ASC_NODE = 22.8839
ARG_OF_PERICENTER = 120.6758
MEAN_ANOMALY   = 117.1362

EPHEMERIS_TYPE = 0
CLASSIFICATION_TYPE = U
NORAD_CAT_ID   = 66886
ELEMENT_SET_NO = 999
REV_AT_EPOCH   = 406
BSTAR          = -.17640192E-1
MEAN_MOTION_DOT = -.2055529E-1
MEAN_MOTION_DDOT = 0

CCSDS_OMM_VERS = 2.0
CREATION_DATE  = 
ORIGINATOR     = 

OBJECT_NAME    = STARLINK-35925
OBJECT_ID      = 2025-283K
CENTER_NAME    = EARTH
REF_FRAME      = TEME
TIME_SYSTEM    = UTC
MEAN_ELEMENT_THEORY = SGP/SGP4

EPOCH          = 2025-12-22T22:00:03.000096
MEAN_MOTION    = 15.71777396
ECCENTRICITY   = .00011506
INCLINATION    = 53.1589
RA_OF_ASC_NODE = 22.8801
ARG_OF_PERICENTER = 86.6689
MEAN_ANOMALY   = 153.0452

EPHEMERIS_TYPE = 0
CLASSIFICATION_TYPE = U
NORAD_CAT_ID   = 66887
ELEMENT_SET_NO = 999
REV_AT_EPOCH   = 406
BSTAR          = -.16392507E-1
MEAN_MOTION_DOT = -.1883477E-1
MEAN_MOTION_DDOT = 0

CCSDS_OMM_VERS = 2.0
CREATION_DATE  = 
ORIGINATOR     = 

OBJECT_NAME    = STARLINK-35919
OBJECT_ID      = 2025-283L
CENTER_NAME    = EARTH
REF_FRAME      = TEME
TIME_SYSTEM    = UTC
MEAN_ELEMENT_THEORY = SGP/SGP4

EPOCH          = 2025-12-22T22:00:03.000096
MEAN_MOTION    = 15.71775408
ECCENTRICITY   = .00012698
INCLINATION    = 53.1589
RA_OF_ASC_NODE = 22.8758
ARG_OF_PERICENTER = 88.9119
MEAN_ANOMALY   = 152.7176

EPHEMERIS_TYPE = 0
CLASSIFICATION_TYPE = U
NORAD_CAT_ID   = 66888
ELEMENT_SET_NO = 999
REV_AT_EPOCH   = 406
BSTAR          = -.16346058E-1
MEAN_MOTION_DOT = -.187882E-1
MEAN_MOTION_DDOT = 0

CCSDS_OMM_VERS = 2.0
CREATION_DATE  = 
ORIGINATOR     = 

OBJECT_NAME    = STARLINK-35852
OBJECT_ID      = 2025-283M
CENTER_NAME    = EARTH
REF_FRAME      = TEME
TIME_SYSTEM    = UTC
MEAN_ELEMENT_THEORY = SGP/SGP4

EPOCH          = 2025-12-22T22:00:03.000096
MEAN_MOTION    = 15.71773459
ECCENTRICITY   = .00013119
INCLINATION    = 53.1589
RA_OF_ASC_NODE = 22.8715
ARG_OF_PERICENTER = 91.4167
MEAN_ANOMALY   = 152.1325

EPHEMERIS_TYPE = 0
CLASSIFICATION_TYPE = U
NORAD_CAT_ID   = 66889
ELEMENT_SET_NO = 999
REV_AT_EPOCH   = 406
BSTAR          = -.16341604E-1
MEAN_MOTION_DOT = -.1878277E-1
MEAN_MOTION_DDOT = 0

CCSDS_OMM_VERS = 2.0
CREATION_DATE  = 
ORIGINATOR     = 

OBJECT_NAME    = STARLINK-35885
OBJECT_ID      = 2025-283N
CENTER_NAME    = EARTH
REF_FRAME      = TEME
TIME_SYSTEM    = UTC
MEAN_ELEMENT_THEORY = SGP/SGP4

EPOCH          = 2025-12-22T22:00:03.000096
MEAN_MOTION    = 15.71776833
ECCENTRICITY   = .00012527
INCLINATION    = 53.1584
RA_OF_ASC_NODE = 22.8679
ARG_OF_PERICENTER = 104.0654
MEAN_ANOMALY   = 141.3992

EPHEMERIS_TYPE = 0
CLASSIFICATION_TYPE = U
NORAD_CAT_ID   = 66890
ELEMENT_SET_NO = 999
REV_AT_EPOCH   = 406
BSTAR          = -.163703E-1
MEAN_MOTION_DOT = -.1881316E-1
MEAN_MOTION_DDOT = 0

CCSDS_OMM_VERS = 2.0
CREATION_DATE  = 
ORIGINATOR     = 

OBJECT_NAME    = STARLINK-35855
OBJECT_ID      = 2025-283P
CENTER_NAME    = EARTH
REF_FRAME      = TEME
TIME_SYSTEM    = UTC
MEAN_ELEMENT_THEORY = SGP/SGP4

EPOCH          = 2025-12-22T22:00:03.000096
MEAN_MOTION    = 15.71772652
ECCENTRICITY   = .00013004
INCLINATION    = 53.1587
RA_OF_ASC_NODE = 22.8636
ARG_OF_PERICENTER = 102.5691
MEAN_ANOMALY   = 144.8161

EPHEMERIS_TYPE = 0
CLASSIFICATION_TYPE = U
NORAD_CAT_ID   = 66891
ELEMENT_SET_NO = 999
REV_AT_EPOCH   = 406
BSTAR          = -.16342864E-1
MEAN_MOTION_DOT = -.1878336E-1
MEAN_MOTION_DDOT = 0

